CTC2_L_00352016-03
1 89714U 26756NG  26070.40846065  .00000000  00000+0  00000-0 0  9992
2 89714  40.0000 180.0000 0000000   0.0000   0.0000 13.29142335    18
CTC2_L_00352016-04
1 89715U 23090NQ  26070.40846065  .00000000  00000+0  00000-0 0  9991
2 89715  40.0000 180.0000 0000000   0.0000  90.0000 13.29142335    18
CTC2_L_00352017-01
1 89716U 23376FA  26070.40846065  .00000000  00000+0  00000-0 0  9999
2 89716  40.0000 192.0000 0000000   0.0000 192.0000 13.29142335    15
CTC2_L_00352017-02
1 89717U 24554AV  26070.40846065  .00000000  00000+0  00000-0 0  9999
2 89717  40.0000 192.0000 0000000   0.0000 282.0000 13.29142335    16
CTC2_L_00352017-03
1 89718U 25197CI  26070.40846065  .00000000  00000+0  00000-0 0  9994
2 89718  40.0000 192.0000 0000000   0.0000  12.0000 13.29142335    18
CTC2_L_00352017-04
1 89719U 24238PE  26070.40846065  .00000000  00000+0  00000-0 0  9990
2 89719  40.0000 192.0000 0000000   0.0000 102.0000 13.29142335    19
CTC2_L_00352018-01
1 89720U 23131BD  26070.40846065  .00000000  00000+0  00000-0 0  9993
2 89720  40.0000 204.0000 0000000   0.0000 204.0000 13.29142335    18
CTC2_L_00352018-02
1 89721U 23798XF  26070.40846065  .00000000  00000+0  00000-0 0  9993
2 89721  40.0000 204.0000 0000000   0.0000 294.0000 13.29142335    18
CTC2_L_00352018-03
1 89722U 22170LN  26070.40846065  .00000000  00000+0  00000-0 0  9997
2 89722  40.0000 204.0000 0000000   0.0000  24.0000 13.29142335    10
CTC2_L_00352018-04
1 89723U 26495DC  26070.40846065  .00000000  00000+0  00000-0 0  9992
2 89723  40.0000 204.0000 0000000   0.0000 114.0000 13.29142335    11
CTC2_L_00352019-01
1 89724U 25780QM  26070.40846065  .00000000  00000+0  00000-0 0  9999
2 89724  40.0000 216.0000 0000000   0.0000 216.0000 13.29142335    18
CTC2_L_00352019-02
1 89725U 26100PC  26070.40846065  .00000000  00000+0  00000-0 0  9997
2 89725  40.0000 216.0000 0000000   0.0000 306.0000 13.29142335    19
CTC2_L_00352019-03
1 89726U 24354WX  26070.40846065  .00000000  00000+0  00000-0 0  9997
2 89726  40.0000 216.0000 0000000   0.0000  36.0000 13.29142335    10
CTC2_L_00352019-04
1 89727U 26417VP  26070.40846065  .00000000  00000+0  00000-0 0  9990
2 89727  40.0000 216.0000 0000000   0.0000 126.0000 13.29142335    11
CTC2_L_00352020-01
1 89728U 22839OT  26070.40846065  .00000000  00000+0  00000-0 0  9995
2 89728  40.0000 228.0000 0000000   0.0000 228.0000 13.29142335    18
CTC2_L_00352020-02
1 89729U 25575BJ  26070.40846065  .00000000  00000+0  00000-0 0  9996
2 89729  40.0000 228.0000 0000000   0.0000 318.0000 13.29142335    19
CTC2_L_00352020-03
1 89730U 22710WU  26070.40846065  .00000000  00000+0  00000-0 0  9996
2 89730  40.0000 228.0000 0000000   0.0000  48.0000 13.29142335    11
CTC2_L_00352020-04
1 89731U 23302MJ  26070.40846065  .00000000  00000+0  00000-0 0  9995
2 89731  40.0000 228.0000 0000000   0.0000 138.0000 13.29142335    12
CTC2_L_00352021-01
1 89732U 22530NN  26070.40846065  .00000000  00000+0  00000-0 0  9998
2 89732  40.0000 240.0000 0000000   0.0000 240.0000 13.29142335    11
CTC2_L_00352021-02
1 89733U 26106BN  26070.40846065  .00000000  00000+0  00000-0 0  9992
2 89733  40.0000 240.0000 0000000   0.0000 330.0000 13.29142335    12
CTC2_L_00352021-03
1 89734U 24716BN  26070.40846065  .00000000  00000+0  00000-0 0  9998
2 89734  40.0000 240.0000 0000000   0.0000  60.0000 13.29142335    13
CTC2_L_00352021-04
1 89735U 25324ZQ  26070.40846065  .00000000  00000+0  00000-0 0  9995
2 89735  40.0000 240.0000 0000000   0.0000 150.0000 13.29142335    14
CTC2_L_00352022-01
1 89736U 25511MV  26070.40846065  .00000000  00000+0  00000-0 0  9994
2 89736  40.0000 252.0000 0000000   0.0000 252.0000 13.29142335    11
CTC2_L_00352022-02
1 89737U 25643VP  26070.40846065  .00000000  00000+0  00000-0 0  9991
2 89737  40.0000 252.0000 0000000   0.0000 342.0000 13.29142335    12
CTC2_L_00352022-03
1 89738U 23044WY  26070.40846065  .00000000  00000+0  00000-0 0  9995
2 89738  40.0000 252.0000 0000000   0.0000  72.0000 13.29142335    13
CTC2_L_00352022-04
1 89739U 26317FV  26070.40846065  .00000000  00000+0  00000-0 0  9992
2 89739  40.0000 252.0000 0000000   0.0000 162.0000 13.29142335    14
CTC2_L_00352023-01
1 89740U 23006FY  26070.40846065  .00000000  00000+0  00000-0 0  9996
2 89740  40.0000 264.0000 0000000   0.0000 264.0000 13.29142335    12
CTC2_L_00352023-02
1 89741U 23905VF  26070.40846065  .00000000  00000+0  00000-0 0  9995
2 89741  40.0000 264.0000 0000000   0.0000 354.0000 13.29142335    13
CTC2_L_00352023-03
1 89742U 26962GI  26070.40846065  .00000000  00000+0  00000-0 0  9992
2 89742  40.0000 264.0000 0000000   0.0000  84.0000 13.29142335    14
CTC2_L_00352023-04
1 89743U 23417RC  26070.40846065  .00000000  00000+0  00000-0 0  9995
2 89743  40.0000 264.0000 0000000   0.0000 174.0000 13.29142335    15
CTC2_L_00352024-01
1 89744U 25994BR  26070.40846065  .00000000  00000+0  00000-0 0  9998
2 89744  40.0000 276.0000 0000000   0.0000 276.0000 13.29142335    12
CTC2_L_00352024-02
1 89745U 22881OI  26070.40846065  .00000000  00000+0  00000-0 0  9991
2 89745  40.0000 276.0000 0000000   0.0000   6.0000 13.29142335    14
CTC2_L_00352024-03
1 89746U 23224YS  26070.40846065  .00000000  00000+0  00000-0 0  9994
2 89746  40.0000 276.0000 0000000   0.0000  96.0000 13.29142335    14
CTC2_L_00352024-04
1 89747U 22884IG  26070.40846065  .00000000  00000+0  00000-0 0  9996
2 89747  40.0000 276.0000 0000000   0.0000 186.0000 13.29142335    15
CTC2_L_00352025-01
1 89748U 24946AM  26070.40846065  .00000000  00000+0  00000-0 0  9998
2 89748  40.0000 288.0000 0000000   0.0000 288.0000 13.29142335    12
CTC2_L_00352025-02
1 89749U 24411YH  26070.40846065  .00000000  00000+0  00000-0 0  9996
2 89749  40.0000 288.0000 0000000   0.0000  18.0000 13.29142335    14
CTC2_L_00352025-03
1 89750U 25414XU  26070.40846065  .00000000  00000+0  00000-0 0  9992
2 89750  40.0000 288.0000 0000000   0.0000 108.0000 13.29142335    16
CTC2_L_00352025-04
1 89751U 22134EC  26070.40846065  .00000000  00000+0  00000-0 0  9999
2 89751  40.0000 288.0000 0000000   0.0000 198.0000 13.29142335    16
CTC2_L_00352026-01
1 89752U 26395SM  26070.40846065  .00000000  00000+0  00000-0 0  9993
2 89752  40.0000 300.0000 0000000   0.0000 300.0000 13.29142335    17
CTC2_L_00352026-02
1 89753U 23859YI  26070.40846065  .00000000  00000+0  00000-0 0  9996
2 89753  40.0000 300.0000 0000000   0.0000  30.0000 13.29142335    18
CTC2_L_00352026-03
1 89754U 26533DY  26070.40846065  .00000000  00000+0  00000-0 0  9999
2 89754  40.0000 300.0000 0000000   0.0000 120.0000 13.29142335    19
CTC2_L_00352026-04
1 89755U 24747G   26070.40846065  .00000000  00000+0  00000-0 0  9995
2 89755  40.0000 300.0000 0000000   0.0000 210.0000 13.29142335    10
CTC2_L_00352027-01
1 89756U 26376NJ  26070.40846065  .00000000  00000+0  00000-0 0  9996
2 89756  40.0000 312.0000 0000000   0.0000 312.0000 13.29142335    17
CTC2_L_00352027-02
1 89757U 23486ML  26070.40846065  .00000000  00000+0  00000-0 0  9996
2 89757  40.0000 312.0000 0000000   0.0000  42.0000 13.29142335    18
CTC2_L_00352027-03
1 89758U 22677LF  26070.40846065  .00000000  00000+0  00000-0 0  9998
2 89758  40.0000 312.0000 0000000   0.0000 132.0000 13.29142335    19
CTC2_L_00352027-04
1 89759U 22750DE  26070.40846065  .00000000  00000+0  00000-0 0  9991
2 89759  40.0000 312.0000 0000000   0.0000 222.0000 13.29142335    10
CTC2_L_00352028-01
1 89760U 25727NZ  26070.40846065  .00000000  00000+0  00000-0 0  9990
2 89760  40.0000 324.0000 0000000   0.0000 324.0000 13.29142335    18
CTC2_L_00352028-02
1 89761U 24416II  26070.40846065  .00000000  00000+0  00000-0 0  9995
2 89761  40.0000 324.0000 0000000   0.0000  54.0000 13.29142335    19
CTC2_L_00352028-03
1 89762U 24811VY  26070.40846065  .00000000  00000+0  00000-0 0  9995
2 89762  40.0000 324.0000 0000000   0.0000 144.0000 13.29142335    10
CTC2_L_00352028-04
1 89763U 24167TC  26070.40846065  .00000000  00000+0  00000-0 0  9990
2 89763  40.0000 324.0000 0000000   0.0000 234.0000 13.29142335    11
CTC2_L_00352029-01
1 89764U 25945WL  26070.40846065  .00000000  00000+0  00000-0 0  9996
2 89764  40.0000 336.0000 0000000   0.0000 336.0000 13.29142335    18
CTC2_L_00352029-02
1 89765U 22931QH  26070.40846065  .00000000  00000+0  00000-0 0  9999
2 89765  40.0000 336.0000 0000000   0.0000  66.0000 13.29142335    19
CTC2_L_00352029-03
1 89766U 25787LJ  26070.40846065  .00000000  00000+0  00000-0 0  9992
2 89766  40.0000 336.0000 0000000   0.0000 156.0000 13.29142335    10
CTC2_L_00352029-04
1 89767U 23985DK  26070.40846065  .00000000  00000+0  00000-0 0  9991
2 89767  40.0000 336.0000 0000000   0.0000 246.0000 13.29142335    11
CTC2_L_00352030-01
1 89768U 23068MD  26070.40846065  .00000000  00000+0  00000-0 0  9994
2 89768  40.0000 348.0000 0000000   0.0000 348.0000 13.29142335    18
CTC2_L_00352030-02
1 89769U 25889BQ  26070.40846065  .00000000  00000+0  00000-0 0  9998
2 89769  40.0000 348.0000 0000000   0.0000  78.0000 13.29142335    19
CTC2_L_00352030-03
1 89770U 25165VT  26070.40846065  .00000000  00000+0  00000-0 0  9997
2 89770  40.0000 348.0000 0000000   0.0000 168.0000 13.29142335    11
CTC2_L_00352030-04
1 89771U 25711XM  26070.40846065  .00000000  00000+0  00000-0 0  9995
2 89771  40.0000 348.0000 0000000   0.0000 258.0000 13.29142335    12
